[
    {
        "Altitude(m)": 703940.114346448,
        "Argument of Periapsis(deg)": 0.004556048474650827,
        "Eccentricity": 0.0,
        "Inclination(deg)": 45.0,
        "Latitude(deg)": -3.342995874806083,
        "Longitude(deg)": 98.03967803108456,
        "Mean Anomaly(deg)": 184.61328665899234,
        "RAAN(deg)": 14.995699223416718,
        "Satellite Name": "Constellation 1 77",
        "Satellite Number": 77,
        "Semi-Major Axis(m)": 7083131.272910544,
        "Time(s)": 76
    },
    {
        "Altitude(m)": 703947.3016521243,
        "Argument of Periapsis(deg)": 0.004615996480896233,
        "Eccentricity": 0.0,
        "Inclination(deg)": 45.0,
        "Latitude(deg)": -3.386130372021577,
        "Longitude(deg)": 98.07856818486594,
        "Mean Anomaly(deg)": 184.67398779924224,
        "RAAN(deg)": 14.995642634251148,
        "Satellite Name": "Constellation 1 77",
        "Satellite Number": 77,
        "Semi-Major Axis(m)": 7083131.272910544,
        "Time(s)": 77
    },
    {
        "Altitude(m)": 703954.5088091235,
        "Argument of Periapsis(deg)": 0.004675944487141638,
        "Eccentricity": 0.0,
        "Inclination(deg)": 45.0,
        "Latitude(deg)": -3.42926283894361,
        "Longitude(deg)": 98.11746206490449,
        "Mean Anomaly(deg)": 184.73468893949214,
        "RAAN(deg)": 14.99558604508558,
        "Satellite Name": "Constellation 1 77",
        "Satellite Number": 77,
        "Semi-Major Axis(m)": 7083131.272910544,
        "Time(s)": 78
    },
    {
        "Altitude(m)": 703961.7358037115,
        "Argument of Periapsis(deg)": 0.004735892493387044,
        "Eccentricity": 0.0,
        "Inclination(deg)": 45.0,
        "Latitude(deg)": -3.4723932503783055,
        "Longitude(deg)": 98.15635971980349,
        "Mean Anomaly(deg)": 184.79539007974202,
        "RAAN(deg)": 14.995529455920007,
        "Satellite Name": "Constellation 1 77",
        "Satellite Number": 77,
        "Semi-Major Axis(m)": 7083131.272910544,
        "Time(s)": 79
    },
    {
        "Altitude(m)": 703968.9826220766,
        "Argument of Periapsis(deg)": 0.004795840499632449,
        "Eccentricity": 0.0,
        "Inclination(deg)": 45.0,
        "Latitude(deg)": -3.515521581124906,
        "Longitude(deg)": 98.1952611981743,
        "Mean Anomaly(deg)": 184.85609121999192,
        "RAAN(deg)": 14.99547286675444,
        "Satellite Name": "Constellation 1 77",
        "Satellite Number": 77,
        "Semi-Major Axis(m)": 7083131.272910544,
        "Time(s)": 80
    },
    {
        "Altitude(m)": 703976.249250304,
        "Argument of Periapsis(deg)": 0.004855788505877855,
        "Eccentricity": 0.0,
        "Inclination(deg)": 45.0,
        "Latitude(deg)": -3.5586478059756095,
        "Longitude(deg)": 98.23416654863662,
        "Mean Anomaly(deg)": 184.9167923602418,
        "RAAN(deg)": 14.995416277588872,
        "Satellite Name": "Constellation 1 77",
        "Satellite Number": 77,
        "Semi-Major Axis(m)": 7083131.272910544,
        "Time(s)": 81
    },
    {
        "Altitude(m)": 703983.5356743878,
        "Argument of Periapsis(deg)": 0.00491573651212326,
        "Eccentricity": 0.0,
        "Inclination(deg)": 45.0,
        "Latitude(deg)": -3.601771899715599,
        "Longitude(deg)": 98.2730756517215,
        "Mean Anomaly(deg)": 184.97749350049173,
        "RAAN(deg)": 14.9953596884233,
        "Satellite Name": "Constellation 1 77",
        "Satellite Number": 77,
        "Semi-Major Axis(m)": 7083131.272910544,
        "Time(s)": 82
    },
    {
        "Altitude(m)": 703990.8418802368,
        "Argument of Periapsis(deg)": 0.004975684518368666,
        "Eccentricity": 0.0,
        "Inclination(deg)": 45.0,
        "Latitude(deg)": -3.644893837122749,
        "Longitude(deg)": 98.3119888922594,
        "Mean Anomaly(deg)": 185.0381946407416,
        "RAAN(deg)": 14.99530309925773,
        "Satellite Name": "Constellation 1 77",
        "Satellite Number": 77,
        "Semi-Major Axis(m)": 7083131.272910544,
        "Time(s)": 83
    },
    {
        "Altitude(m)": 703998.1678536612,
        "Argument of Periapsis(deg)": 0.005035632524614072,
        "Eccentricity": 0.0,
        "Inclination(deg)": 45.0,
        "Latitude(deg)": -3.68801359296771,
        "Longitude(deg)": 98.3509061507983,
        "Mean Anomaly(deg)": 185.09889578099154,
        "RAAN(deg)": 14.99524651009216,
        "Satellite Name": "Constellation 1 77",
        "Satellite Number": 77,
        "Semi-Major Axis(m)": 7083131.272910544,
        "Time(s)": 84
    },
    {
        "Altitude(m)": 704005.5135803957,
        "Argument of Periapsis(deg)": 0.0050955805308594785,
        "Eccentricity": 0.0,
        "Inclination(deg)": 45.0,
        "Latitude(deg)": -3.7311311420137874,
        "Longitude(deg)": 98.389827475992,
        "Mean Anomaly(deg)": 185.15959692124142,
        "RAAN(deg)": 14.995189920926592,
        "Satellite Name": "Constellation 1 77",
        "Satellite Number": 77,
        "Semi-Major Axis(m)": 7083131.272910544,
        "Time(s)": 85
    },
    {
        "Altitude(m)": 704012.8790460543,
        "Argument of Periapsis(deg)": 0.005155528537104883,
        "Eccentricity": 0.0,
        "Inclination(deg)": 45.0,
        "Latitude(deg)": -3.774246459016754,
        "Longitude(deg)": 98.42875291650293,
        "Mean Anomaly(deg)": 185.22029806149132,
        "RAAN(deg)": 14.995133331761023,
        "Satellite Name": "Constellation 1 77",
        "Satellite Number": 77,
        "Semi-Major Axis(m)": 7083131.272910544,
        "Time(s)": 86
    },
    {
        "Altitude(m)": 704020.2642361942,
        "Argument of Periapsis(deg)": 0.0052154765433502885,
        "Eccentricity": 0.0,
        "Inclination(deg)": 45.0,
        "Latitude(deg)": -3.817359518724911,
        "Longitude(deg)": 98.46768252100256,
        "Mean Anomaly(deg)": 185.2809992017412,
        "RAAN(deg)": 14.995076742595453,
        "Satellite Name": "Constellation 1 77",
        "Satellite Number": 77,
        "Semi-Major Axis(m)": 7083131.272910544,
        "Time(s)": 87
    },
    {
        "Altitude(m)": 704027.6691362538,
        "Argument of Periapsis(deg)": 0.005275424549595694,
        "Eccentricity": 0.0,
        "Inclination(deg)": 45.0,
        "Latitude(deg)": -3.8604702958787698,
        "Longitude(deg)": 98.5066163381711,
        "Mean Anomaly(deg)": 185.34170034199113,
        "RAAN(deg)": 14.995020153429884,
        "Satellite Name": "Constellation 1 77",
        "Satellite Number": 77,
        "Semi-Major Axis(m)": 7083131.272910544,
        "Time(s)": 88
    },
    {
        "Altitude(m)": 704035.0937315932,
        "Argument of Periapsis(deg)": 0.0053353725558411,
        "Eccentricity": 0.0,
        "Inclination(deg)": 45.0,
        "Latitude(deg)": -3.9035787652112917,
        "Longitude(deg)": 98.54555424860108,
        "Mean Anomaly(deg)": 185.40240148224103,
        "RAAN(deg)": 14.994963564264312,
        "Satellite Name": "Constellation 1 77",
        "Satellite Number": 77,
        "Semi-Major Axis(m)": 7083131.272910544,
        "Time(s)": 89
    },
    {
        "Altitude(m)": 704042.53800748,
        "Argument of Periapsis(deg)": 0.005395320562086505,
        "Eccentricity": 0.0,
        "Inclination(deg)": 45.0,
        "Latitude(deg)": -3.9466849014474077,
        "Longitude(deg)": 98.58449663718514,
        "Mean Anomaly(deg)": 185.46310262249094,
        "RAAN(deg)": 14.994906975098745,
        "Satellite Name": "Constellation 1 77",
        "Satellite Number": 77,
        "Semi-Major Axis(m)": 7083131.272910544,
        "Time(s)": 90
    },
    {
        "Altitude(m)": 704050.0019490923,
        "Argument of Periapsis(deg)": 0.00545526856833191,
        "Eccentricity": 0.0,
        "Inclination(deg)": 45.0,
        "Latitude(deg)": -3.989788679304203,
        "Longitude(deg)": 98.6234433845342,
        "Mean Anomaly(deg)": 185.52380376274078,
        "RAAN(deg)": 14.994850385933177,
        "Satellite Name": "Constellation 1 77",
        "Satellite Number": 77,
        "Semi-Major Axis(m)": 7083131.272910544,
        "Time(s)": 91
    },
    {
        "Altitude(m)": 704057.4855415112,
        "Argument of Periapsis(deg)": 0.005515216574577317,
        "Eccentricity": 0.0,
        "Inclination(deg)": 45.0,
        "Latitude(deg)": -4.0328900734909086,
        "Longitude(deg)": 98.66239453936576,
        "Mean Anomaly(deg)": 185.58450490299072,
        "RAAN(deg)": 14.994793796767604,
        "Satellite Name": "Constellation 1 77",
        "Satellite Number": 77,
        "Semi-Major Axis(m)": 7083131.272910544,
        "Time(s)": 92
    },
    {
        "Altitude(m)": 704064.9887697354,
        "Argument of Periapsis(deg)": 0.005575164580822722,
        "Eccentricity": 0.0,
        "Inclination(deg)": 45.0,
        "Latitude(deg)": -4.075989058708309,
        "Longitude(deg)": 98.70135015040645,
        "Mean Anomaly(deg)": 185.6452060432406,
        "RAAN(deg)": 14.994737207602036,
        "Satellite Name": "Constellation 1 77",
        "Satellite Number": 77,
        "Semi-Major Axis(m)": 7083131.272910544,
        "Time(s)": 93
    },
    {
        "Altitude(m)": 704072.5116186598,
        "Argument of Periapsis(deg)": 0.005635112587068129,
        "Eccentricity": 0.0,
        "Inclination(deg)": 45.0,
        "Latitude(deg)": -4.119085609649226,
        "Longitude(deg)": 98.74031026639285,
        "Mean Anomaly(deg)": 185.7059071834905,
        "RAAN(deg)": 14.994680618436465,
        "Satellite Name": "Constellation 1 77",
        "Satellite Number": 77,
        "Semi-Major Axis(m)": 7083131.272910544,
        "Time(s)": 94
    }
]